{
    "links": {
        "self": "http://www.neowsapp.com/rest/v1/neo/54054706?api_key=iIulBulltgU6a56xZRHN4H3l9WmuAYTsLGpBGhQ2"
    },
    "id": "54054706",
    "neo_reference_id": "54054706",
    "name": "(2020 SK6)",
    "designation": "2020 SK6",
    "nasa_jpl_url": "http://ssd.jpl.nasa.gov/sbdb.cgi?sstr=54054706",
    "absolute_magnitude_h": 23.356,
    "estimated_diameter": {
        "kilometers": {
            "estimated_diameter_min": 0.0566702302,
            "estimated_diameter_max": 0.126718487
        },
        "meters": {
            "estimated_diameter_min": 56.6702301759,
            "estimated_diameter_max": 126.7184869738
        },
        "miles": {
            "estimated_diameter_min": 0.0352132376,
            "estimated_diameter_max": 0.078739193
        },
        "feet": {
            "estimated_diameter_min": 185.9259579702,
            "estimated_diameter_max": 415.7430808032
        }
    },
    "is_potentially_hazardous_asteroid": false,
    "close_approach_data": [
        {
            "close_approach_date": "2020-10-07",
            "close_approach_date_full": "2020-Oct-07 18:51",
            "epoch_date_close_approach": 1602096660000,
            "relative_velocity": {
                "kilometers_per_second": "14.3921778122",
                "kilometers_per_hour": "51811.840123875",
                "miles_per_hour": "32193.8625480822"
            },
            "miss_distance": {
                "astronomical": "0.15511224",
                "lunar": "60.33866136",
                "kilometers": "23204460.7149288",
                "miles": "14418583.28966544"
            },
            "orbiting_body": "Earth"
        }
    ],
    "orbital_data": {
        "orbit_id": "2",
        "orbit_determination_date": "2020-11-01 05:40:54",
        "first_observation_date": "2020-09-26",
        "last_observation_date": "2020-09-28",
        "data_arc_in_days": 2,
        "observations_used": 15,
        "orbit_uncertainty": "9",
        "minimum_orbit_intersection": ".0130545",
        "jupiter_tisserand_invariant": "4.949",
        "epoch_osculation": "2459119.5",
        "eccentricity": ".3654775966333348",
        "semi_major_axis": "1.29207404060261",
        "inclination": "6.653842585565906",
        "ascending_node_longitude": "31.58775442288274",
        "orbital_period": "536.4503443942839",
        "perihelion_distance": ".8198499255708461",
        "perihelion_argument": "63.18871452177213",
        "aphelion_distance": "1.764298155634374",
        "perihelion_time": "2459183.326966717425",
        "mean_anomaly": "317.1671297103601",
        "mean_motion": ".6710779548598905",
        "equinox": "J2000",
        "orbit_class": {
            "orbit_class_type": "APO",
            "orbit_class_description": "Near-Earth asteroid orbits which cross the Earth’s orbit similar to that of 1862 Apollo",
            "orbit_class_range": "a (semi-major axis) > 1.0 AU; q (perihelion) < 1.017 AU"
        }
    },
    "is_sentry_object": false
}